NORAD_CAT_ID,OBJECT_NAME,OBJECT_TYPE,EPOCH,MEAN_MOTION,ECCENTRICITY,INCLINATION,RA_OF_ASC_NODE,ARG_OF_PERICENTER,MEAN_ANOMALY,BSTAR,MEAN_MOTION_DOT,MEAN_MOTION_DDOT,TLE_LINE0,TLE_LINE1,TLE_LINE2,SEMIMAJOR_AXIS,PERIOD,APOGEE,PERIGEE,DECAYED
52690.0,STARLINK-4035,PAYLOAD,2023-02-26 07:56:47,15.08843734,0.0001957,53.2164,75.2431,120.0619,240.0568,0.0003198,4.806e-05,0.0,0 STARLINK-4035,1 52690U 22053AL  23057.33110123  .00004806  00000-0  31980-3 0  9997,2 52690  53.2164  75.2431 0001957 120.0619 240.0568 15.08843734 43575,6917.869,95.437,541.088,538.38,0.0
52690.0,STARLINK-4035,PAYLOAD,2023-02-26 12:42:56,15.08846919,0.0001254,53.2159,74.3517,97.2932,262.8203,0.00051343,7.894e-05,0.0,0 STARLINK-4035,1 52690U 22053AL  23057.52982165  .00007894  00000-0  51343-3 0  9996,2 52690  53.2159  74.3517 0001254  97.2932 262.8203 15.08846919 43977,6917.859,95.437,540.592,538.857,0.0
52690.0,STARLINK-4035,PAYLOAD,2023-02-26 17:29:06,15.08824952,0.0001168,53.2167,73.4596,124.9821,235.1281,-4.376e-05,-9.84e-06,0.0,0 STARLINK-4035,1 52690U 22053AL  23057.72854638 -.00000984  00000-0 -43760-4 0  9991,2 52690  53.2167  73.4596 0001168 124.9821 235.1281 15.08824952 43637,6917.926,95.439,540.599,538.983,0.0
52690.0,STARLINK-4035,PAYLOAD,2023-02-27 09:22:58,15.08846179,0.000145,53.2158,70.486,112.0335,248.0812,0.0019851,0.00031452,0.0,0 STARLINK-4035,1 52690U 22053AL  23058.39095212  .00031452  00000-0  19851-2 0  9994,2 52690  53.2158  70.4860 0001450 112.0335 248.0812 15.08846179 43739,6917.862,95.437,540.73,538.723,0.0
52690.0,STARLINK-4035,PAYLOAD,2023-02-27 17:19:53,15.08868747,0.0001305,53.2162,68.9986,96.0606,264.0535,0.0018542,0.00029368,0.0,0 STARLINK-4035,1 52690U 22053AL  23058.72214858  .00029368  00000-0  18542-2 0  9999,2 52690  53.2162  68.9986 0001305  96.0606 264.0535 15.08868747 44158,6917.793,95.436,540.56,538.755,0.0
52690.0,STARLINK-4035,PAYLOAD,2023-02-28 01:16:49,15.08861706,0.000121,53.2155,67.5124,100.72,259.3929,0.00094469,0.00014788,0.0,0 STARLINK-4035,1 52690U 22053AL  23059.05334558  .00014788  00000-0  94469-3 0  9999,2 52690  53.2155  67.5124 0001210 100.7200 259.3929 15.08861706 43833,6917.814,95.436,540.516,538.842,0.0
52690.0,STARLINK-4035,PAYLOAD,2023-02-28 10:49:06,15.08892817,0.0001351,53.2159,65.7293,106.8933,253.2207,0.0014541,0.00022963,0.0,0 STARLINK-4035,1 52690U 22053AL  23059.45077185  .00022963  00000-0  14541-2 0  9999,2 52690  53.2159  65.7293 0001351 106.8933 253.2207 15.08892817 43895,6917.719,95.434,540.519,538.649,0.0
52690.0,STARLINK-4035,PAYLOAD,2023-02-28 17:10:39,15.08854074,0.0001837,53.2159,64.5388,87.6219,272.4983,-9.8581e-06,-4.45e-06,0.0,0 STARLINK-4035,1 52690U 22053AL  23059.71573750 -.00000445  00000-0 -98581-5 0  9999,2 52690  53.2159  64.5388 0001837  87.6219 272.4983 15.08854074 44303,6917.837,95.437,540.973,538.432,0.0
52690.0,STARLINK-4035,PAYLOAD,2023-03-01 09:04:32,15.08814309,0.0001666,53.215,61.5649,85.7726,274.3457,-0.00040148,-6.667e-05,0.0,0 STARLINK-4035,1 52690U 22053AL  23060.37815156 -.00006667  00000-0 -40148-3 0  9998,2 52690  53.2150  61.5649 0001666  85.7726 274.3457 15.08814309 44037,6917.959,95.439,540.976,538.671,0.0
52690.0,STARLINK-4035,PAYLOAD,2023-03-01 17:01:27,15.08836325,0.000117,53.215,60.0791,90.6208,269.4918,0.00087605,0.0001368,0.0,0 STARLINK-4035,1 52690U 22053AL  23060.70934986  .00013680  00000-0  87605-3 0  9998,2 52690  53.2150  60.0791 0001170  90.6208 269.4918 15.08836325 44083,6917.892,95.438,540.566,538.947,0.0
52690.0,STARLINK-4035,PAYLOAD,2023-03-02 16:52:14,15.08855829,0.0001898,53.2158,55.6176,97.0869,263.0339,0.00029918,4.479e-05,0.0,0 STARLINK-4035,1 52690U 22053AL  23061.70294285  .00004479  00000-0  29918-3 0  9999,2 52690  53.2158  55.6176 0001898  97.0869 263.0339 15.08855829 44604,6917.832,95.437,541.01,538.384,0.0
52690.0,STARLINK-4035,PAYLOAD,2023-03-03 08:46:06,15.0885301,0.0001567,53.2156,52.6449,106.6136,253.5028,0.0030852,0.00049173,0.0,0 STARLINK-4035,1 52690U 22053AL  23062.36534913  .00049173  00000-0  30852-2 0  9995,2 52690  53.2156  52.6449 0001567 106.6136 253.5028 15.08853010 44338,6917.841,95.437,540.79,538.622,0.0
52690.0,STARLINK-4035,PAYLOAD,2023-03-03 16:43:02,15.08845538,0.0002052,53.2151,51.1574,98.4698,261.6526,0.0018112,0.0002866,0.0,0 STARLINK-4035,1 52690U 22053AL  23062.69655493  .00028660  00000-0  18112-2 0  9991,2 52690  53.2151  51.1574 0002052  98.4698 261.6526 15.08845538 44381,6917.863,95.437,541.148,538.309,0.0
52690.0,STARLINK-4035,PAYLOAD,2023-03-04 02:15:21,15.08850861,0.000168,53.2151,49.3727,107.4425,252.675,0.0014715,0.00023216,0.0,0 STARLINK-4035,1 52690U 22053AL  23063.09399332  .00023216  00000-0  14715-2 0  9990,2 52690  53.2151  49.3727 0001680 107.4425 252.6750 15.08850861 44446,6917.847,95.437,540.874,538.55,0.0
52690.0,STARLINK-4035,PAYLOAD,2023-03-04 08:36:53,15.08866312,0.0001627,53.2157,48.184,103.5104,256.6069,0.0019771,0.00031341,0.0,0 STARLINK-4035,1 52690U 22053AL  23063.35895053  .00031341  00000-0  19771-2 0  9995,2 52690  53.2157  48.1840 0001627 103.5104 256.6069 15.08866312 44857,6917.8,95.436,540.79,538.539,0.0
52690.0,STARLINK-4035,PAYLOAD,2023-03-04 16:33:49,15.08849063,0.0001998,53.2165,46.696,91.7545,268.3675,0.0011817,0.00018574,0.0,0 STARLINK-4035,1 52690U 22053AL  23063.69015526  .00018574  00000-0  11817-2 0  9997,2 52690  53.2165  46.6960 0001998  91.7545 268.3675 15.08849063 44532,6917.853,95.437,541.1,538.336,0.0
52690.0,STARLINK-4035,PAYLOAD,2023-03-05 05:16:54,15.08858027,0.0001884,53.2163,44.3175,95.282,264.8387,0.0017234,0.0002726,0.0,0 STARLINK-4035,1 52690U 22053AL  23064.22007334  .00027260  00000-0  17234-2 0  9996,2 52690  53.2163  44.3175 0001884  95.2820 264.8387 15.08858027 44612,6917.825,95.436,540.994,538.387,0.0
52690.0,STARLINK-4035,PAYLOAD,2023-03-06 01:56:55,15.08861954,0.000155,53.2165,40.4516,101.9849,258.1317,0.0020414,0.0003237,0.0,0 STARLINK-4035,1 52690U 22053AL  23065.08119615  .00032370  00000-0  20414-2 0  9999,2 52690  53.2165  40.4516 0001550 101.9849 258.1317 15.08861954 44742,6917.813,95.436,540.751,538.606,0.0
52690.0,STARLINK-4035,PAYLOAD,2023-03-06 09:53:50,15.08873723,0.0001516,53.2161,38.9661,82.6682,277.4482,0.001676,0.00026511,0.0,0 STARLINK-4035,1 52690U 22053AL  23065.41239122  .00026511  00000-0  16760-2 0  9991,2 52690  53.2161  38.9661 0001516  82.6682 277.4482 15.08873723 44792,6917.777,95.435,540.691,538.594,0.0
52690.0,STARLINK-4035,PAYLOAD,2023-03-06 22:36:56,15.08821461,0.0001469,53.2173,36.5855,102.764,257.3516,0.0012389,0.00019474,0.0,0 STARLINK-4035,1 52690U 22053AL  23065.94232285  .00019474  00000-0  12389-2 0  9995,2 52690  53.2173  36.5855 0001469 102.7640 257.3516 15.08821461 45247,6917.937,95.439,540.818,538.786,0.0
52690.0,STARLINK-4035,PAYLOAD,2023-03-07 04:58:29,15.08851683,0.0001237,53.2169,35.3971,92.269,267.8443,0.0024985,0.00039713,0.0,0 STARLINK-4035,1 52690U 22053AL  23066.20728205  .00039713  00000-0  24985-2 0  9990,2 52690  53.2169  35.3971 0001237  92.2690 267.8443 15.08851683 44916,6917.845,95.437,540.565,538.854,0.0
52690.0,STARLINK-4035,PAYLOAD,2023-03-07 09:44:38,15.0887396,0.0001053,53.2168,34.5051,96.7418,263.3695,0.0033521,0.00053516,0.0,0 STARLINK-4035,1 52690U 22053AL  23066.40599893  .00053516  00000-0  33521-2 0  9994,2 52690  53.2168  34.5051 0001053  96.7418 263.3695 15.08873960 44943,6917.777,95.435,540.37,538.913,0.0
52690.0,STARLINK-4035,PAYLOAD,2023-03-07 22:27:43,15.08855781,0.0001363,53.2166,32.1256,94.7139,265.4009,0.0014254,0.0002248,0.0,0 STARLINK-4035,1 52690U 22053AL  23066.93592321  .00022480  00000-0  14254-2 0  9999,2 52690  53.2166  32.1256 0001363  94.7139 265.4009 15.08855781 45397,6917.832,95.437,540.64,538.754,0.0
52690.0,STARLINK-4035,PAYLOAD,2023-03-08 01:38:30,15.08854734,0.0001083,53.2171,31.531,93.2914,266.8202,0.0016534,0.00026134,0.0,0 STARLINK-4035,1 52690U 22053AL  23067.06840308  .00026134  00000-0  16534-2 0  9998,2 52690  53.2171  31.5310 0001083  93.2914 266.8202 15.08854734 45040,6917.835,95.437,540.45,538.951,0.0
52690.0,STARLINK-4035,PAYLOAD,2023-03-08 08:00:02,15.08875818,0.0001024,53.2169,30.3417,75.4446,284.666,0.0026089,0.00041518,0.0,0 STARLINK-4035,1 52690U 22053AL  23067.33335970  .00041518  00000-0  26089-2 0  9991,2 52690  53.2169  30.3417 0001024  75.4446 284.6660 15.08875818 45085,6917.771,95.435,540.344,538.928,0.0
52690.0,STARLINK-4035,PAYLOAD,2023-03-08 20:43:07,15.08867117,0.0001505,53.2164,27.9627,77.018,283.098,0.0022505,0.00035737,0.0,0 STARLINK-4035,1 52690U 22053AL  23067.86328343  .00035737  00000-0  22505-2 0  9990,2 52690  53.2164  27.9627 0001505  77.0180 283.0980 15.08867117 45533,6917.798,95.436,540.704,538.621,0.0
52690.0,STARLINK-4035,PAYLOAD,2023-03-09 03:04:39,15.08885347,9.57e-05,53.217,26.7732,106.5529,253.5568,0.0036777,0.00058804,0.0,0 STARLINK-4035,1 52690U 22053AL  23068.12823926  .00058804  00000-0  36777-2 0  9993,2 52690  53.2170  26.7732 0000957 106.5529 253.5568 15.08885347 45202,6917.742,95.435,540.269,538.945,0.0
52690.0,STARLINK-4035,PAYLOAD,2023-03-09 06:15:25,15.08884275,0.0001002,53.2169,26.1782,107.0,253.1102,0.0029973,0.00047796,0.0,0 STARLINK-4035,1 52690U 22053AL  23068.26071626  .00047796  00000-0  29973-2 0  9998,2 52690  53.2169  26.1782 0001002 107.0000 253.1102 15.08884275 45222,6917.745,95.435,540.303,538.917,0.0
52690.0,STARLINK-4035,PAYLOAD,2023-03-10 02:55:26,15.08890766,0.0001208,53.2172,22.3134,113.7144,246.3975,0.0030881,0.00049271,0.0,0 STARLINK-4035,1 52690U 22053AL  23069.12183164  .00049271  00000-0  30881-2 0  9995,2 52690  53.2172  22.3134 0001208 113.7144 246.3975 15.08890766 45354,6917.725,95.434,540.426,538.755,0.0
52690.0,STARLINK-4035,PAYLOAD,2023-03-10 14:03:08,15.08849115,0.0002121,53.2173,20.2323,57.7428,302.377,0.0013573,0.00021385,0.0,0 STARLINK-4035,1 52690U 22053AL  23069.58551825  .00021385  00000-0  13573-2 0  9993,2 52690  53.2173  20.2323 0002121  57.7428 302.3770 15.08849115 45425,6917.853,95.437,541.185,538.25,0.0
